zone,region,city,office,name,lat,lon
WEST,AHMEDABAD,AHMEDABAD,A01,AHMEDABAD APEX,23.106556,72.683222
WEST,AHMEDABAD,BARODA,A02,BARODA BRANCH,22.33424307,73.16552617
WEST,AHMEDABAD,RAJKOT,A03,RAJKOT BRANCH,22.27983403,70.79548111
WEST,AHMEDABAD,SURAT,A04,SURAT APEX,21.175874,72.955277
WEST,AHMEDABAD,VAPI,A05,VAPI BRANCH,20.36025,72.9179
WEST,AHMEDABAD,ANKLESHWAR,A07,ANKLESHWAR BRANCH,21.611786,73.0201776
WEST,AHMEDABAD,AHMEDABAD,A11,KHOKHRA BRANCH,23.00743692,72.61368813
WEST,AHMEDABAD,KUTCH,A16,KUTCH DDLP SUPER FRANCHISE,23.067835,70.139366
WEST,AHMEDABAD,BARODA,A17,BARODA SCS APEX,22.34587,73.24232
WEST,AHMEDABAD,MEHSANA,A18,MEHSANA SERVICE CENTER,23.593081,72.350821
WEST,AHMEDABAD,AHMEDABAD,A19,BAKROL APEX,23.01420376,72.66981554
WEST,AHMEDABAD,SURAT,A21,SURAT SCS APEX,21.18357,72.92481
WEST,AHMEDABAD,AHMEDABAD,A24,AHMEDABAD BRANCH,23.0331,72.5689
WEST,AHMEDABAD,BHAVNAGAR,A27,BHAVNAGAR SORTING OFFICE,21.7579734,72.1483693
WEST,AHMEDABAD,JAMNAGAR,A33,JAMNAGAR BRANCH,22.474815,70.067623
WEST,AHMEDABAD,AHMEDABAD,A36,AHMEDABAD WEST BRANCH,23.0749203,72.5213679
WEST,AHMEDABAD,GANDHINAGAR,A38,GANDHINAGAR BRANCH,23.25521,72.632783
WEST,AHMEDABAD,ANAND,A44,ANAND BRANCH,22.544634,72.952506
WEST,AHMEDABAD,SURENDRANAGAR,A45,SURENDRANAGAR BRANCH,22.72493337,71.63302204
WEST,AHMEDABAD,SURAT,A46,SURAT CITY BRANCH,21.209618,72.837093
WEST,AHMEDABAD,BHUJ,A47,BHUJ SUPER FRANCHISEE,23.2461714,69.6742626
WEST,AHMEDABAD,AHMEDABAD,A48,CHILODA BRANCH,23.106326,72.683018
WEST,AHMEDABAD,HALOL,A49,HALOL BRANCH,22.3459576,73.2425377
WEST,AHMEDABAD,SANAND,A50,SANAND SERVICE CENTER,23.012625,72.336963
WEST,AHMEDABAD,DAHEJ,A51,DAHEJ SORTING OFFICE,21.7144276,72.6271475
WEST,AHMEDABAD,AHMEDABAD,A52,AHMEDABAD T/S APEX,23.106556,72.683222
WEST,AHMEDABAD,AHMEDABAD,A53,AHMEDABAD AIRPORT,23.106556,72.683222
WEST,AHMEDABAD,SURAT,A54,SURAT AIRPORT,21.175874,72.955277
WEST,AHMEDABAD,SURAT,A55,PANDESARA BRANCH,21.149082,72.851499
SOUTH,BANGALORE,MANGALORE,B01,MANGALORE SUPER FRANCHISEE,12.88889313,74.82789612
SOUTH,BANGALORE,MYSORE,B02,MYSORE BRANCH,12.2854657,76.6129104
SOUTH,BANGALORE,HUBLI,B03,HUBLI BRANCH,15.356049,75.130127
SOUTH,BANGALORE,GULBARGA,B05,GULBARGA SUPER FRANCHISEE,17.362246,76.824072
SOUTH,BANGALORE,BANGALORE,B06,BOMMANAHALLI BRANCH,12.89117,77.642539
SOUTH,BANGALORE,BANGALORE,B07,CHAMRAJPET BRANCH,12.96043469,77.56498796
SOUTH,BANGALORE,BANGALORE,B08,PEENYA BRANCH,13.02106784,77.52206709
SOUTH,BANGALORE,BANGALORE,B09,RAJAJINAGAR BRANCH,12.9819403,77.54759633
SOUTH,BANGALORE,BANGALORE,B10,BANGALORE YELAHANKA APEX,13.1066,77.6187
SOUTH,BANGALORE,BANGALORE,B11,HENNUR BRANCH,13.02813674,77.63153566
SOUTH,BANGALORE,BANGALORE,B112,SOUTH BANGALORE STORAGE CENTER APEX,13.1066,77.6187
SOUTH,BANGALORE,BANGALORE,B113,ATTIBELE APEX,12.79177099,77.72562365
SOUTH,BANGALORE,BANGALORE,B114,DTDC TECHNOLOGY INNOVATION CENTRE-2,12.9416,77.61718
SOUTH,BANGALORE,BANGALORE,B115,KAMBIPURA IGSP BRANCH,12.96142,77.568874
SOUTH,BANGALORE,BANGALORE,B116,MALLESHWARAM IGSP BRANCH,13.001676,77.571476
SOUTH,BANGALORE,BANGALORE,B117,YELAHANKA T/S APEX,13.1066,77.6187
SOUTH,BANGALORE,BANGALORE,B118,BANGALOREÂ STATIONERY BRANCH,13.1052,77.6178
SOUTH,BANGALORE,BANGALORE,B119,BANGALORE AIRPORT,13.1066,77.6187
SOUTH,BANGALORE,BANGALORE,B120,RAJAJESHWARINAGAR BRANCH,12.939009,77.516769
SOUTH,BANGALORE,CHITRADURGA,B13,CHITRADURGA SORTING OFFICE,14.2370526,76.4123577
SOUTH,BANGALORE,BANGALORE,B14,DEVANAHALLI SERVICE CENTER,13.24606,77.70554
SOUTH,BANGALORE,BANGALORE,B15,CORPORATE OFFICE APEX,12.9536792,77.6176248
SOUTH,BANGALORE,BELGAUM,B16,BELGAUM SUPER FRANCHISEE,15.85338,74.506649
SOUTH,BANGALORE,HASSAN,B18,HASSAN BRANCH,12.99714,76.102602
SOUTH,BANGALORE,HOSPET,B19,HOSPET SUPER FRANCHISEE,15.26073647,76.37518311
SOUTH,BANGALORE,BANGALORE,B24,BANGALORE INTERNATIONAL BRANCH,13.1066,77.6187
SOUTH,BANGALORE,BANGALORE,B26,KOGILU BRANCH,13.1052,77.6178
SOUTH,BANGALORE,HOSUR,B27,HOSUR BRANCH,12.75013404,77.7943002
SOUTH,BANGALORE,PANJIM,B32,GOA PANJIM BRANCH,15.488056,73.856111
SOUTH,BANGALORE,BANGALORE,B34,CORPORATE STORES - SIRSI CIRCLE BRANCH,12.9621,77.5584
SOUTH,BANGALORE,BANGALORE,B35,WHITE FIELD BRANCH,12.989308,77.695614
SOUTH,BANGALORE,BANGALORE,B36,BANGALORE NELAMANGALA APEX,13.06799001,77.45002405
SOUTH,BANGALORE,BANGALORE,B37,BLR DP PROCESSING APEX,13.1066,77.6187
SOUTH,BANGALORE,SHIMOGA,B38,SHIMOGA SORTING OFFICE,13.93981918,75.53812224
SOUTH,BANGALORE,SIRSI,B39,SIRSI BRANCH OFFICE,14.609508,74.843485
SOUTH,BANGALORE,BAGALKOT,B41,BAGALKOT SORTING OFFICE,16.1861287,75.7006506
SOUTH,BANGALORE,BIJAPUR,B42,BIJAPUR SORTING OFFICE,16.83458328,75.71536255
SOUTH,BANGALORE,TUMKUR,B43,TUMKUR SORTING OFFICE,13.34813135,77.10770009
SOUTH,BANGALORE,BANGALORE,B44,BANGALORE AIRPORT BRANCH,12.95917606,77.65560512
SOUTH,BANGALORE,BELLARY,B47,BELLARY SORTING OFFICE,15.15456465,76.93430121
SOUTH,BANGALORE,DAVANGERE,B50,DAVANGERE BRANCH,14.45819985,75.93869766
SOUTH,BANGALORE,MARGAO,B51,MARGAO BRANCH,15.28476,73.979993
SOUTH,BANGALORE,UDUPI,B53,UDUPI NODAL POINT,13.341759,74.759844
SOUTH,BANGALORE,BANGALORE,B58,DOMLUR BRANCH,12.95462894,77.64167023
SOUTH,BANGALORE,BANGALORE,B59,SARAKKI BRANCH,12.910815,77.578157
SOUTH,BANGALORE,BANGALORE,B61,NERALURU BRANCH,12.79177099,77.72562365
SOUTH,BANGALORE,BIDAR,B62,BIDAR SORTING OFFICE,17.9214888,77.5081307
SOUTH,BANGALORE,RAICHUR,B63,RAICHUR SORTING OFFICE,16.216917,77.35775
SOUTH,BANGALORE,CHICKAMAGALUR,B64,CHIKMAGALUR BRANCH,13.30763626,75.79417419
SOUTH,BANGALORE,SALCETE,B65,VERNA BRANCH,15.373485,73.92967
SOUTH,BANGALORE,BANGALORE,B68,HOSKOTE BRANCH,13.0771846,77.80560124
SOUTH,BANGALORE,MANDYA,B95,MANDYA NODAL POINT,12.525561,76.887468
SOUTH,CHENNAI,PONDICHERRY,C02,PONDICHERRY BRANCH,11.946191,79.777866
SOUTH,CHENNAI,KATPADI,C08,KATPADI BRANCH,12.93120167,79.13423333
SOUTH,CHENNAI,CHENNAI,C13,GUINDY BRANCH,13.01608,80.21167
SOUTH,CHENNAI,CHENNAI,C14,AMINJIKARAI BRANCH,13.069909,80.222846
SOUTH,CHENNAI,CHENNAI,C15,PARRYS BRANCH,13.09632,80.29147
SOUTH,CHENNAI,CHENNAI,C20,VELAPPANCHAVADI APEX,13.0633359,80.139097
SOUTH,CHENNAI,VILLUPURAM - TN,C22,VILLUPURAM BRANCH,11.9280556,79.48025
SOUTH,CHENNAI,CHENNAI,C30,TAMBARAM MASTER FRANCHISEE,12.9256,80.10312
SOUTH,CHENNAI,CHENNAI,C35,CHENNAI INTERNATIONAL BRANCH,13.0633359,80.139097
SOUTH,CHENNAI,CHENNAI,C36,ELDAMS ROAD BRANCH,13.03911,80.25107
SOUTH,CHENNAI,CHENNAI,C37,AMBATTUR BRANCH,13.09959,80.17181
SOUTH,CHENNAI,CHENNAI,C38,PORUR BRANCH,13.03247784,80.15710585
SOUTH,CHENNAI,CHENNAI,C41,GEC CHENNAI,13.0633359,80.139097
SOUTH,CHENNAI,CHENNAI,C42,GUINDY APEX,13.05947836,80.13138739
SOUTH,CHENNAI,CHENNAI,C47,PALLIKKARANAI MASTER FRANCHISEE,12.94225,80.20616667
SOUTH,CHENNAI,CHENNAI,C48,MADHAVARAM BRANCH,13.15025,80.22126
SOUTH,CHENNAI,CHENNAI,C50,SRM - POTHERI SUPER FRANCHISEE,12.82974,80.04505
SOUTH,CHENNAI,THANDALAM,C53,SREEPERUMBADHUR BRANCH,12.968381,79.953607
SOUTH,CHENNAI,CHENNAI,C54,CHENNAI DP PROCESSING CENTRE APEX,13.0633359,80.139097
SOUTH,CHENNAI,CHENGALPATTU,C57,CHENGALPET BRANCH,12.69987,79.96918
SOUTH,CHENNAI,KANCHIPURAM,C59,KANCHEEPURAM BRANCH,12.83647045,79.7125383
SOUTH,CHENNAI,SRICITY,C60,SRI CITY BRANCH,13.57028,80.03544
SOUTH,CHENNAI,CHENNAI,C73,GUMMIDIPOONDI BRANCH,13.40894,80.12071
SOUTH,CHENNAI,CHENNAI,C74,THIRUVERKADU BRANCH,13.0630475,80.1391284
SOUTH,CHENNAI,CHENNAI,C75,VELAPPANCHAVADI T/S APEX,13.0633359,80.139097
SOUTH,CHENNAI,CHENNAI,C76,VELAPPANCHAVADI AIRPORT,13.0633359,80.139097
SOUTH,CHENNAI,CHENNAI,C77,IP DISPATCH CHENNAI BRANCH,13.063334,80.138879
SOUTH,COIMBATORE,COIMBATORE,E01,COIMBATORE INTEGRATED APEX,11.074398,77.112634
SOUTH,COIMBATORE,TIRUPUR,E02,TIRUPUR BRANCH,11.10782426,77.32839594
SOUTH,COIMBATORE,ERODE,E03,ERODE BRANCH,11.345784,77.640083
SOUTH,COIMBATORE,SALEM,E04,SALEM APEX,11.6476208,78.1225439
SOUTH,COIMBATORE,KARUR,E05,KARUR BRANCH,10.962204,78.060505
SOUTH,COIMBATORE,TRICHY,E06,TRICHY BRANCH,10.80083672,78.70687294
SOUTH,COIMBATORE,DINDIGUL,E07,DINDIGUL BRANCH,10.36984208,77.95070109
SOUTH,COIMBATORE,MADURAI,E08,MADURAI APEX,9.9160699,78.0999871
SOUTH,COIMBATORE,TIRUNELVELI,E09,TIRUNELVELI BRANCH,8.723193292,77.72106845
SOUTH,COIMBATORE,TUTICORIN,E10,TUTICORIN BRANCH,8.807496667,78.14142833
SOUTH,COIMBATORE,NAGERCOIL,E11,NAGERCOILBRANCH,8.193834,77.442241
SOUTH,COIMBATORE,COIMBATORE,E13,COIMBATORE SCS APEX,11.051994,77.075771
SOUTH,COIMBATORE,SALEM,E14,SALEM SCS APEX,11.6476208,78.1225439
SOUTH,COIMBATORE,KRISHNAGIRI,E16,KRISHNAGIRI BRANCH,12.52387243,78.21039917
SOUTH,COIMBATORE,SIVAKASI,E20,SIVAKASI BRANCH,9.46405,77.79675
SOUTH,COIMBATORE,COIMBATORE,E21,COIMBATORE CITY BRANCH,11.02051,76.98313
SOUTH,COIMBATORE,THANJAVUR,E23,THANJAVUR BRANCH,10.7784691,79.1668871
SOUTH,COIMBATORE,THENI,E24,THENI BRANCH,10.008256,77.478499
SOUTH,COIMBATORE,TIRUPUR,E57,TIRUPUR SCS BRANCH,11.15889,77.38861
SOUTH,COIMBATORE,COIMBATORE,E58,COIMBATORE T/S APEX,11.017391,76.98321
SOUTH,COIMBATORE,COIMBATORE,E59,COIMBATORE AIRPORT,11.017391,76.98321
SOUTH,HYDERABAD,HYDERABAD,H07,BASHEERBAGH BRANCH,17.4067876,78.4778127
SOUTH,HYDERABAD,HYDERABAD,H08,BANJARAHILLS MASTER FRANCHISEE,17.4281551,78.4182351
SOUTH,HYDERABAD,HYDERABAD,H09,BALANAGAR BRANCH,17.47813,78.426128
SOUTH,HYDERABAD,HYDERABAD,H10,BEGUMPET BRANCH,17.4451241,78.4626917
SOUTH,HYDERABAD,HYDERABAD,H106,HYDERABAD AIRPORT,17.25955818,78.37652436
SOUTH,HYDERABAD,HYDERABAD,H11,KARMANGHAT BRANCH,17.3388089,78.53665725
SOUTH,HYDERABAD,HYDERABAD,H13,HYDERABAD SHAMSHABAD APEX,17.25955818,78.37652436
SOUTH,HYDERABAD,WARANGAL,H17,WARANGAL SUPER FRANCHISEE,17.9785298,79.6068373
SOUTH,HYDERABAD,KARIMNAGAR,H37,KARIMNAGAR SUPER FRANCHISEE,18.413139,79.135861
SOUTH,HYDERABAD,MAHABUBNAGAR,H42,MAHABUBNAGAR SUPER FRANCHISEE,16.767417,78.124722
SOUTH,HYDERABAD,HYDERABAD,H48,ANANDBAGH BRANCH,17.459601,78.557657
SOUTH,HYDERABAD,NIZAMABAD,H53,NIZAMABAD SUPER FRANCHISEE,18.681137,78.095917
SOUTH,HYDERABAD,HYDERABAD,H64,TELANGANA T/S APEX,17.25955818,78.37652436
SOUTH,HYDERABAD,SECUNDRABAD,H66,HYDERABAD SCS APEX,17.5429966,78.4879812
SOUTH,HYDERABAD,HYDERABAD,H70,GACHIBOWLI MASTER FRANCHISEE,17.41879663,78.38070337
SOUTH,HYDERABAD,HYDERABAD,H71,MEHDIPATNAM MASTER FRANCHISEE,17.388393,78.429516
SOUTH,HYDERABAD,HYDERABAD,H74,BOWENPALLY BRANCH,17.4896187,78.4822783
SOUTH,HYDERABAD,HYDERABAD,H75,BACHUPALLY NIZAMPET ROAD BRANCH,17.537887,78.363998
SOUTH,HYDERABAD,HYDERABAD,H79,NAGOLE PRACEL BRANCH,17.38219998,78.56766162
SOUTH,HYDERABAD,HYDERABAD,H80,CHANDANAGAR BRANCH,17.49883763,78.31574381
SOUTH,HYDERABAD,HYDERABAD,H90,MEDCHAL APEX,17.5429966,78.4879812
SOUTH,HYDERABAD,KHAMMAM,H91,KHAMMAM BRANCH,17.24848457,80.12996734
SOUTH,HYDERABAD,SURYAPET,H92,SURYAPET BRANCH,17.152417,79.621611
SOUTH,HYDERABAD,RANGAREDDY,H96,SHAMSHABAD BRANCH,17.25955818,78.37652436
SOUTH,HYDERABAD,MANCHERIAL,H98,MANCHERIAL SUPER FRANCHISEE,18.865111,79.45775
WEST,INDORE REGIONAL OFFICE,INDORE,I01,INDORE APEX,22.746654,75.892436
WEST,INDORE REGIONAL OFFICE,BHOPAL,I02,BHOPAL BRANCH,23.27432761,77.43983616
WEST,INDORE REGIONAL OFFICE,PITAMPUR,I03,PITHAMPUR SUB BRANCH,22.5950692,75.696276
WEST,INDORE REGIONAL OFFICE,INDORE,I04,INDORE T/S APEX,22.746654,75.892436
WEST,INDORE REGIONAL OFFICE,RATLAM,I07,RATLAM SORTING OFFICE,23.32854373,75.0364079
WEST,INDORE REGIONAL OFFICE,JABALPUR,I08,JABALPUR BRANCH,23.2019213,79.885772
WEST,INDORE REGIONAL OFFICE,BHOPAL,I10,BHOPAL T/S APEX,23.27432761,77.43983616
WEST,INDORE REGIONAL OFFICE,CHINDWARA,I11,CHHINDWARA SORTING OFFICE,22.06202215,78.95305557
WEST,INDORE REGIONAL OFFICE,MANDSAUR / DASPURKUNJ,I16,MANDSAUR SORTING OFFICE,24.07529054,75.06819506
WEST,INDORE REGIONAL OFFICE,REWA,I19,REWA BRANCH,24.5444,81.32317
WEST,INDORE REGIONAL OFFICE,DEWAS,I20,DEWAS BRANCH,22.976737,76.054412
WEST,INDORE REGIONAL OFFICE,INDORE,I24,INDORE SURFACE APEX,22.816102,75.939382
WEST,INDORE REGIONAL OFFICE,NEEMUCH,I29,NEEMUCH NODAL POINT,24.46239665,74.87486968
WEST,INDORE REGIONAL OFFICE,JABALPUR,I30,SHAHDOL NODAL POINT,23.29929,81.364875
WEST,INDORE REGIONAL OFFICE,SAGAR(MP),I34,SAGAR BRANCH,23.84878135,78.74049686
WEST,INDORE REGIONAL OFFICE,BETUL,I39,BETUL BRANCH,21.9018963,77.891193
WEST,INDORE REGIONAL OFFICE,UJJAIN,I40,UJJAIN SORTING OFFICE,23.17971,75.79362
WEST,INDORE REGIONAL OFFICE,MANDIDEEP (RAISEN),I41,MANDIDEEP SERVICE CENTER,23.1001,77.5113
WEST,INDORE REGIONAL OFFICE,INDORE,I42,INDORE CITY BRANCH,22.736601,75.877975
WEST,INDORE REGIONAL OFFICE,BHOPAL,I43,BHOPAL CITY BRANCH,23.235347,77.434564
WEST,INDORE REGIONAL OFFICE,SATNA,I44,SATNA SORTING OFFICE,24.57426,80.8465471
WEST,INDORE REGIONAL OFFICE,KATNI,I45,KATNI SORTING OFFICE,23.84023,80.41189
WEST,INDORE REGIONAL OFFICE,INDORE,I46,INDORE VIJAYNAGAR BRANCH,22.746583,75.892511
WEST,INDORE REGIONAL OFFICE,INDORE,I47,INDORE AIRPORT,22.746654,75.892436
WEST,INDORE REGIONAL OFFICE,INDORE,I48,IP DISPATCH INDORE BRANCH,22.746583,75.892511
NORTH,HHPT REGIONAL OFFICE,CHANDIGARH,J01,CHANDIGARH BRANCH,30.71151,76.808558
NORTH,HHPT REGIONAL OFFICE,JALANDHAR,J02,JALANDHAR BRANCH,31.3584794,75.5819223
NORTH,HHPT REGIONAL OFFICE,LUDHIANA,J03,LUDHIANA BRANCH,30.8955863,75.8833003
NORTH,HHPT REGIONAL OFFICE,PANIPAT,J04,PANIPAT BRANCH,29.3752606,76.9783179
NORTH,HHPT REGIONAL OFFICE,AMRITSAR,J05,AMRITSAR BRANCH,31.610906,74.9212785
NORTH,HHPT REGIONAL OFFICE,AMBALA,J06,AMBALA BRANCH,30.403561,76.787836
NORTH,HHPT REGIONAL OFFICE,HISSAR,J07,HISSAR BRANCH,29.13406,75.740307
NORTH,HHPT REGIONAL OFFICE,BHATINDA,J08,BHATINDA BRANCH,30.223627,74.934895
NORTH,HHPT REGIONAL OFFICE,AMBALA,J10,AMBALA APEX,30.403561,76.787836
NORTH,HHPT REGIONAL OFFICE,PATHANKOT,J11,PATHANKOT BRANCH,32.269851,75.646496
NORTH,HHPT REGIONAL OFFICE,BADDI,J12,BADDI SUPER FRANCHISEE,30.93845,76.800679
NORTH,HHPT REGIONAL OFFICE,PANCHKULA,J13,PANCHKULA BRANCH,30.667815,76.837394
NORTH,HHPT REGIONAL OFFICE,SHIMLA,J14,SHIMLA BRANCH,31.108444,77.164871
NORTH,HHPT REGIONAL OFFICE,KARNAL,J15,KARNAL BRANCH,29.671061,76.991046
NORTH,HHPT REGIONAL OFFICE,RAJPURA,J16,RAJPURA BRANCH,30.4923588,76.5974042
NORTH,HHPT REGIONAL OFFICE,PHAGWARA,J17,PHAGWARA BRANCH,31.213305,75.77217
NORTH,HHPT REGIONAL OFFICE,PATIALA,J18,PATIALA BRANCH,30.34437,76.399084
NORTH,HHPT REGIONAL OFFICE,NANGAL,J19,NANGAL BRANCH,31.3628978,76.3779668
NORTH,HHPT REGIONAL OFFICE,BILASPUR  ( H.P.),J20,BILASPUR SUPER FRANCHISEE,31.338231,76.760871
NORTH,HHPT REGIONAL OFFICE,MOHALI,J21,MOHALI BRANCH,30.7144071,76.6913828
NORTH,HHPT REGIONAL OFFICE,ROHTAK,J25,ROHTAK BRANCH,28.9089,76.590565
NORTH,HHPT REGIONAL OFFICE,KUNDLI,J26,KUNDLI BRANCH,28.860715,77.153571
NORTH,HHPT REGIONAL OFFICE,CHANDIGARH,J29,PANCHKULA APEX,30.667815,76.837394
NORTH,HHPT REGIONAL OFFICE,CHANDIGARH,J30,CHANDIGARH SCS APEX,30.667815,76.837394
NORTH,HHPT REGIONAL OFFICE,BADDI,J33,BADDI SCS APEX,30.9279878,76.7966137
NORTH,HHPT REGIONAL OFFICE,SIRSA,J36,SIRSA BRANCH,29.5336667,75.0300057
NORTH,HHPT REGIONAL OFFICE,BAHADURGARH,J37,BAHADURGARH BRANCH,28.68945,76.953875
NORTH,HHPT REGIONAL OFFICE,SOLAN,J39,SOLAN BRANCH,30.90637,77.088789
NORTH,HHPT REGIONAL OFFICE,MOGA,J48,MOGA BRANCH,30.82256126,75.17527771
NORTH,HHPT REGIONAL OFFICE,YAMUNA NAGAR,J50,YAMUNA NAGAR BRANCH,30.13258984,77.28474862
NORTH,HHPT REGIONAL OFFICE,LUDHIANA,J53,LUDHIANA ATAM PARK BRANCH,30.895573,75.883299
NORTH,HHPT REGIONAL OFFICE,KHARAR,J54,KHARAR BRANCH,30.7456796,76.6527478
NORTH,HHPT REGIONAL OFFICE,PANCHKULA,J55,PANCHKULA T/S APEX,30.667815,76.837394
NORTH,HHPT REGIONAL OFFICE,PANCHKULA,J56,PANCHKULA AIRPORT,30.667815,76.837394
NORTH,HHPT REGIONAL OFFICE,BATALA,J57,BATALA BRANCH,31.8226985,75.2094149
NORTH,HHPT REGIONAL OFFICE,HOSHIARPUR,J58,HOSHIARPUR SERVICE CENTER,31.518055,75.926388
EAST,KOLKATA,KOLKATA,K01,MOULALI BRANCH,22.56048346,88.36895577
EAST,KOLKATA,KOLKATA,K02,DTDC BHAWAN,22.62824545,88.44588786
EAST,KOLKATA,KRISHNANAGAR,K03,KRISHNANAGAR BRANCH,23.3762904,88.5125793
EAST,KOLKATA,KOLKATA,K04,BAGHBAZAR BRANCH,22.604267,88.374071
EAST,KOLKATA,KOLKATA,K05,RAJARHAT BRANCH,22.62824545,88.44588786
EAST,KOLKATA,KOLKATA,K06,AGARPARA SUPER FRANCHISEE,22.687889,88.380944
EAST,KOLKATA,KOLKATA,K07,TARATALA(GOPALPUR) MASTER FRANCHISEE,22.51392239,88.28749967
EAST,KOLKATA,HOWRAH,K08,HOWRAH BRANCH,22.597692,88.346169
EAST,KOLKATA,ALIPURDWAR,K104,ALIPURDUAR BRANCH,26.49070803,89.52644226
EAST,KOLKATA,KALIMPONG,K114,KALINGPONG HELIX SORTING OFFICE,27.06419,88.46667
EAST,KOLKATA,RANIGANJ,K119,PUNJABI MORE BRANCH,23.6356357,87.1177009
EAST,KOLKATA,HOWRAH,K128,EAST KOLKATA KONA STORAGE CENTER APEX,22.61790235,88.27881141
EAST,KOLKATA,MATIGARA,K129,KHAPRAIL BRANCH,26.74426398,88.3537118
EAST,KOLKATA,BARUIPUR,K130,BARUIPUR BRANCH,22.39087083,88.4171103
EAST,KOLKATA,MAYNAGURI,K132,MOYNAGURI HELIX SORTING OFFICE,26.5659038,88.8267541
EAST,KOLKATA,DOMJUR,K133,KOLKATA FULFILMENT CENTRE-FC_11,22.60095966,88.22296766
EAST,KOLKATA,KOLKATA,K134,KOLKATA AIRPORT,22.62824545,88.44588786
EAST,KOLKATA,MATIGARA,K135,SILIGURI-MATIGARA AIRPORT,26.74426398,88.3537118
EAST,KOLKATA,DURGAPUR,K136,ANDAL AIR APEX,23.49828,87.32783
EAST,KOLKATA,DURGAPUR,K14,DURGAPUR BRANCH,23.49828,87.32783
EAST,KOLKATA,SILIGURI,K15,SILIGURI BRANCH,26.71349247,88.42535262
EAST,KOLKATA,KOLKATA,K16,KOLKATA RAJARHAT APEX,22.62824545,88.44588786
EAST,KOLKATA,ASANSOL,K22,ASANSOL BRANCH,23.70836351,86.95007678
EAST,KOLKATA,MALDAH,K23,MALDA BRANCH,24.99608722,88.15811202
EAST,KOLKATA,KOLKATA,K26,KOLKATA INTERNATIONAL APEX,22.55660582,88.39789079
EAST,KOLKATA,PURULIA,K27,PURULIA SUB BRANCH,23.32843,86.37015
EAST,KOLKATA,KOLKATA,K28,BY-PASS BRANCH,22.55660582,88.39789079
EAST,KOLKATA,DIAMOND HARBOUR,K29,DIAMOND HARBOR SORTING OFFICE,22.20240621,88.18924839
EAST,KOLKATA,MECHEDA,K32,MECHEDA BRANCH,22.41342885,87.86281222
EAST,KOLKATA,BAHARAMPORE,K37,BAHARAMPORE BRANCH,24.09258565,88.2689143
EAST,KOLKATA,KOLKATA,K39,LAKE VIEW BRANCH,22.509325,88.34605791
EAST,KOLKATA,KHARAGPUR,K40,KHARAGPUR BRANCH,22.37317496,87.34126308
EAST,KOLKATA,BURDWAN,K45,BURDWAN BRANCH,23.269912,87.822494
EAST,KOLKATA,GANGTOK,K51,GANGTOK SERVICE CENTER,27.30885651,88.59471465
EAST,KOLKATA,FULIA,K54,FULIA BRANCH,23.220178,88.505196
EAST,KOLKATA,KOLKATA,K55,KOLKATA T/S APEX,22.62824545,88.44588786
EAST,KOLKATA,PORT BLAIR,K56,PORT BLAIR BRANCH,11.659932,92.732993
EAST,KOLKATA,BANKURA,K63,BANKURA SUPER FRANCHISE,23.23000438,87.06392297
EAST,KOLKATA,KOLKATA,K65,KOLKATA HP APEX,22.62824545,88.44588786
EAST,KOLKATA,SILIGURI,K66,SILIGURI-MATIGARA APEX,26.74426398,88.3537118
EAST,KOLKATA,KOLKATA,K68,SALT LAKE BRANCH,22.59459335,88.42106258
EAST,KOLKATA,HOWRAH,K72,KONA BRANCH,22.61790235,88.27881141
EAST,KOLKATA,BARASAT,K74,BARASAT BRANCH,22.718198,88.523752
EAST,KOLKATA,KOLKATA,K75,GARIA BRANCH,22.46641291,88.39704962
EAST,KOLKATA,COOCHBEHAR,K79,COOCHBEHAR BRANCH,26.3338757,89.4586333
EAST,KOLKATA,SERAMPORE,K81,SERAMPORE SUPER FRANCHISEE,22.7619341,88.3167777
EAST,KOLKATA,RANGPO,K82,RANGPO SUB BRANCH,27.17721333,88.522671
EAST,KOLKATA,KOLKATA,K83,KOLKATA DP PROCESSING AND DELIVERY BRANCH,22.62824545,88.44588786
EAST,KOLKATA,DARJEELING,K84,DARJEELING BRANCH,27.04084765,88.263563
EAST,KOLKATA,BIRBHUM,K85,BOLPUR BRANCH,23.65587,87.68866
EAST,KOLKATA,KOLKATA,K88,CAMAC STREET BRANCH,22.552155,88.355167
EAST,KOLKATA,HALDIA,K89,HALDIA SERVICE CENTER,22.0625995,88.0797428
EAST,KOLKATA,HOWRAH,K95,KOLKATA PAKURIA APEX,22.61790235,88.27881141
EAST,KOLKATA,SILIGURI,K96,NORTH BENGAL T/S APEX,26.74426398,88.3537118
NORTH,GGR REGIONAL OFFICE,GURGAON,L01,GURGAON DP PROCESSING CENTER APEX,28.53231663,77.09848338
NORTH,GGR REGIONAL OFFICE,GURGAON,L02,GURGAON MASTER FRANCHISEE,28.46080986,77.08384333
NORTH,GGR REGIONAL OFFICE,GURGAON,L03,GURGAON - HERO HONDA CHOWK BRANCH,28.44898176,77.02466524
NORTH,GGR REGIONAL OFFICE,GURGAON,L04,GURGAON BRANCH,28.49562696,77.06081857
NORTH,GGR REGIONAL OFFICE,DHARUHERA,L05,DHARUHERA BRANCH,28.29083713,76.85456587
NORTH,GGR REGIONAL OFFICE,GURGAON,L14,GURGAON SCS APEX,28.49562696,77.06081857
NORTH,GGR REGIONAL OFFICE,GURGAON,L23,MANESAR BRANCH,28.40651465,76.88362896
NORTH,GGR REGIONAL OFFICE,GURGAON,L24,BILASPUR APEX,28.40651465,76.88362896
NORTH,GGR REGIONAL OFFICE,GURGAON,L27,GURGAON - SOHNA ROAD BRANCH,28.40931315,77.04183359
NORTH,GGR REGIONAL OFFICE,NUH,L28,NUH RURAL SERVICE CENTER,28.09178396,77.00646584
NORTH,GGR REGIONAL OFFICE,GURGAON,L29,CORPORATE TECHNOLOGY OFFICE,28.47255522,77.0709888
NORTH,GGR REGIONAL OFFICE,GURGAON,L30,GURGAON T/S APEX,28.49562696,77.06081857
WEST,MUMBAI,MUMBAI,M01,LOWER PAREL BRANCH,19.00618185,72.82632596
WEST,MUMBAI,MUMBAI,M02,FORT BRANCH,18.93384567,72.83483858
WEST,MUMBAI,MUMBAI,M04,MIDC BRANCH,19.1145843,72.8601245
WEST,MUMBAI,MUMBAI,M05,GOREGAON BRANCH,19.16970592,72.85830827
WEST,MUMBAI,MUMBAI,M06,GHATKOPAR BRANCH,19.09377334,72.91312844
WEST,MUMBAI,MUMBAI,M07,THANE BRANCH,19.2098062,72.9751924
WEST,MUMBAI,MUMBAI,M08,VASHI BRANCH,19.04935373,73.02014275
WEST,MUMBAI,MUMBAI,M10,MUMBAI SAKINAKA APEX,19.102839,72.882515
WEST,MUMBAI,MUMBAI,M13,MUMBAI INTERNATIONAL APEX,19.102839,72.882515
WEST,MUMBAI,BHIWANDI,M33,MUMBAI VADPE APEX,19.30625904,73.10881733
WEST,MUMBAI,BHIWANDI,M35,BHIWANDI BRANCH,19.30625904,73.10881733
WEST,MUMBAI,PANVEL,M39,PANVEL BRANCH,19.01305584,73.10124406
WEST,MUMBAI,MUMBAI,M45,CHEMBUR BRANCH,19.060427,72.911542
WEST,MUMBAI,VASAI,M46,VASAI BRANCH,19.406051,72.857754
WEST,MUMBAI,KALYAN,M47,KALYAN BRANCH,19.23441579,73.12644819
WEST,MUMBAI,MUMBAI,M48,ANDHERI BRANCH,19.12613567,72.85287179
WEST,MUMBAI,MUMBAI,M50,BHANDUP SCS BRANCH,19.153508,72.936865
WEST,MUMBAI,MUMBAI,M54,MAROL BRANCH,19.102839,72.882515
WEST,MUMBAI,BOISAR,M57,BOISAR BRANCH,19.78305791,72.75781124
WEST,MUMBAI,MUMBAI,M59,BHANDUP BRANCH,19.153508,72.936865
WEST,MUMBAI,MUMBAI,M61,DAHISAR BRANCH,19.2581612,72.873338
WEST,MUMBAI,PANVEL,M63,WADKAL BRANCH,18.740342,73.090816
WEST,MUMBAI,MUMBAI,M66,MAHAPE BRANCH,19.14239,73.006725
WEST,MUMBAI,MUMBAI,M68,BANDRA SORTING OFFICE,19.05810189,72.83857654
WEST,MUMBAI,MUMBAI,M69,MUMBAI DP PROCESSING CENTRE APEX,19.102839,72.882515
WEST,MUMBAI,BHIWANDI,M72,WEST MUMBAI VADAPE STORAGE CENTER APEX,19.30625904,73.10881733
WEST,MUMBAI,MUMBAI,M74,MUMBAI DRS/POD SCAN CENTRE BRANCH,19.16970592,72.85830827
WEST,MUMBAI,BHIWANDI,M75,MUMBAI VADAPE- BHIWANDI PROCESSING CENTER,19.30625904,73.10881733
WEST,MUMBAI,MUMBAI,M78,ANDHERI WEST BRANCH,19.12598514,72.84668201
WEST,MUMBAI,MUMBAI,M79,DTDC CORPORATE OFFICE,19.17030616,72.86030215
WEST,MUMBAI,MUMBAI,M80,ANDHERI WEST IGSP BRANCH,19.13875,72.80646
WEST,MUMBAI,VASAI,M81,KAMAN APEX,19.35789077,72.9089167
WEST,MUMBAI,MUMBAI,M82,MIRA ROAD IGSP BRANCH,19.271678,72.891044
WEST,MUMBAI,MUMBAI,M83,MUMBAI SAKINAKA T/S APEX,19.102839,72.882515
WEST,MUMBAI,MUMBAI,M84,MUMBAI AIRPORT,19.102839,72.882515
WEST,MUMBAI,BHIWANDI,M85,BHIWANDI RKG BRANCH,19.2638756,73.0703067
WEST,MUMBAI,MUMBAI,M86,NEW MUMBAI PROCESSING CENTRE APEX,19.04935373,73.02014275
WEST,MUMBAI,MUMBAI,M87,MALAD SERVICE CENTER,19.17267868,72.84807036
WEST,MUMBAI,MUMBAI,M88,YESSWORKS OFFICE,,
WEST,MUMBAI,MUMBAI,M89,CHINTAMANI OFFICE,,
NORTH,NORTH DELHI RO,DELHI,N02,TRANSYAMUNA BRANCH,28.634016,77.31575
NORTH,NORTH DELHI RO,DELHI,N03,NARAINA CITY BRANCH,28.62285529,77.1359227
NORTH,NORTH DELHI RO,DELHI,N04,NORTH T/S APEX,28.53231663,77.09848338
NORTH,NORTH DELHI RO,DELHI,N05,DELHI SAMALKHA APEX,28.53231663,77.09848338
NORTH,NORTH DELHI RO,DELHI,N06,DELHI SAMALKHA INTERNATIONAL APEX,28.53231663,77.09848338
NORTH,NORTH DELHI RO,DELHI,N09,WAZIRPUR BRANCH,28.701941,77.168195
NORTH,NORTH DELHI RO,DELHI,N10,JHANDEWALAN BRANCH,28.64448858,77.20132042
NORTH,NORTH DELHI RO,DELHI,N11,MEERBAGH BRANCH,28.660556,77.084997
NORTH,NORTH DELHI RO,DELHI,N12,NARAINA MASS MAIL PROCESSING OUTSOURCED BRANCH,28.53231663,77.09848338
NORTH,NORTH DELHI RO,DELHI,N15,DURGAPURI BRANCH,28.6753424,77.3121565
NORTH,NORTH DELHI RO,DELHI,N17,ROHINI BRANCH,28.7454745,77.1360366
NORTH,NORTH DELHI RO,DELHI,N19,NARAINA SCS HUB,28.68149316,77.08133817
NORTH,NORTH DELHI RO,DELHI,N20,DELHI DP PROCESSING CENTRE APEX,28.53231663,77.09848338
NORTH,NORTH DELHI RO,DELHI,N24,DELHI ECOMMERCE PROCESSING CENTRE APEX,28.53231663,77.09848338
NORTH,NORTH DELHI RO,NOIDA,N30,NOIDA APEX,28.5931599,77.3135731
NORTH,NORTH DELHI RO,NOIDA,N31,GREATER NOIDA BRANCH,28.5532935,77.41282394
NORTH,NORTH DELHI RO,NOIDA,N32,NOIDA PH3 BRANCH,28.6018628,77.3596867
NORTH,NORTH DELHI RO,DELHI,N33,DARYGANJ BRANCH,28.642927,77.243136
NORTH,NORTH DELHI RO,NOIDA,N35,PARI CHOWK BRANCH,28.454913,77.528753
NORTH,NORTH DELHI RO,JAMMU,N37,JAMMU BRANCH,32.70282801,74.86723753
NORTH,NORTH DELHI RO,SRINAGAR -JK,N38,SRI NAGAR BRANCH,34.0838592,74.8229279
NORTH,NORTH DELHI RO,DELHI,N39,NORTH DELHI SAMALKHA STORAGE CENTER APEX,28.53231663,77.09848338
NORTH,NORTH DELHI RO,DELHI,N41,DELHI SAMHALKHA SURFACE APEX,28.53231663,77.09848338
NORTH,NORTH DELHI RO,NOIDA,N42,ECOTECH 12 NOIDA BRANCH,28.596883,77.465735
NORTH,NORTH DELHI RO,DELHI,N43,TRANSYAMUNA APEX,28.634016,77.31575
NORTH,NORTH DELHI RO,DELHI,N44,DELHI AIRPORT,28.53231663,77.09848338
NORTH,NORTH DELHI RO,DELHI,N45,ROHINI APEX,28.7454745,77.1360366
SOUTH,COCHIN,ALLEPPEY,O01,ALLEPPEY BRANCH,9.5133376,76.327577
SOUTH,COCHIN,CALICUT,O02,CALICUT BRANCH,11.2822,75.807099
SOUTH,COCHIN,PALGHAT,O03,PALGHAT BRANCH,10.73965,76.64214
SOUTH,COCHIN,TRICHUR,O04,TRICHUR BRANCH,10.490398,76.252813
SOUTH,COCHIN,TRIVANDRUM,O05,TRIVANDRUM BRANCH,8.4820566,76.9589082
SOUTH,COCHIN,COCHIN,O06,COCHIN APEX,10.06337,76.28998
SOUTH,COCHIN,KOTTAYAM,O07,KOTTAYAM BRANCH,9.577538,76.517234
SOUTH,COCHIN,QUILON,O08,QUILON BRANCH,8.901054,76.586589
SOUTH,COCHIN,CANNANORE,O09,CANNANORE BRANCH,11.87294,75.37953
SOUTH,COCHIN,TIRUVALLA,O11,THIRUVALLA BRANCH,9.40105,76.56528
SOUTH,COCHIN,KOTTAKKAL,O12,KOTTAKAL BRANCH,10.915269,75.996734
SOUTH,COCHIN,COCHIN,O13,ALWAYE BRANCH,10.06337,76.28998
SOUTH,COCHIN,CHERTHALA,O14,CHERTHALA BRANCH,9.69252,76.33487
SOUTH,COCHIN,CHANGANACHERRY,O17,CHANGANACHERRY NODAL POINT,9.441817074,76.54424385
SOUTH,COCHIN,IDUKKI,O21,ADIMALY BRANCH,10.01116221,76.95637007
SOUTH,COCHIN,COCHIN,O23,COCHIN BRANCH,9.99257,76.28587
SOUTH,COCHIN,KALPETTA,O25,KALPETTA BRANCH,11.619584,76.078795
SOUTH,COCHIN,KASARGOD,O60,KANHANGAD BRANCH,12.345727,75.100289
SOUTH,COCHIN,MUVATTUPUZHA,O88,MUVATTUPUZHA BRANCH,9.971065,76.580741
SOUTH,COCHIN,THALASSERY,O89,THALASSERY BRANCH,11.775664,75.518
SOUTH,COCHIN,TRIVANDRUM,O90,ATTINGAL BRANCH,8.600662329,76.85473641
SOUTH,COCHIN,COCHIN,O91,COCHIN T/S APEX,10.06337,76.28998
SOUTH,COCHIN,COCHIN,O92,COCHIN AIRPORT,10.06337,76.28998
SOUTH,COCHIN,KARUKUTTY,O93,CHALAKUDY BRANCH,10.2216607,76.376537
SOUTH,COCHIN,MALAPPURAM,O94,PERINTHALMANNA BRANCH,10.999128,76.177412
WEST,PUNE,PUNE,P01,PUNE APEX,18.628523,73.873561
WEST,PUNE,PUNE,P04,PUNE PIMPRI BRANCH,18.64256,73.79888
WEST,PUNE,SOLAPUR,P06,SOLAPUR BRANCH,17.68141,75.912255
WEST,PUNE,AHMEDNAGAR,P08,AHILYANAGAR SUPER FRANCHISEE,19.084955,74.739632
WEST,PUNE,AURANGABAD MH,P09,CHHATRAPATI SAMBHAJINAGAR BRANCH,19.87438947,75.31428994
WEST,PUNE,SANGLI,P10,SANGLI SUPER FRANCHISEE,16.863873,74.601896
WEST,PUNE,KOLHAPUR,P11,KOLHAPUR BRANCH,16.6679401,74.27129427
WEST,PUNE,PUNE,P12,PUNE SHIVAJI NAGAR BRANCH,18.53516349,73.84994089
WEST,PUNE,SATARA,P13,SATARA SUPER FRANCHISEE,17.705916,74.024004
WEST,PUNE,PUNE,P15,MARKET YARD BRANCH,18.48999356,73.87012891
WEST,PUNE,LATUR,P16,LATUR BRANCH,18.384532,76.568425
WEST,PUNE,NANDED,P17,NANDED SUPER FRANCHISEE,19.178425,77.304565
WEST,PUNE,NASIK,P19,NASIK BRANCH,19.94329632,73.74265981
WEST,PUNE,JALGAON,P20,JALGAON SUPER FRANCHISEE,21.013354,75.5661116
WEST,PUNE,CHIPLUN,P21,CHIPLUN BRANCH,17.52273041,73.51470964
WEST,PUNE,PUNE,P22,WARJE BRANCH,18.483508,73.80053
WEST,PUNE,PUNE,P24,WAGHOLI BRANCH,18.577083,73.964444
WEST,PUNE,BARAMATI,P25,BARAMATI MASTER FRANCHISEE,18.155127,74.575646
WEST,PUNE,KANKAVLI,P26,KANKAVALI BRANCH,16.26562952,73.70929454
WEST,PUNE,PUNE,P27,PUNE - HADAPSAR ROAD MASTER FRANCHISEE,18.495194,73.921333
WEST,PUNE,TEMBHURNI,P28,TEMBHURNI SORTING OFFICE,18.0299808,75.20757164
WEST,PUNE,PANDHARPUR,P29,PANDHARPUR SORTING OFFICE,17.68045465,75.3268454
WEST,PUNE,SATARA,P32,KARAD SORTING OFFICE,17.27501675,74.17956609
WEST,PUNE,DHULE,P38,DHULE BRANCH,20.837541,74.758129
WEST,PUNE,PUNE,P44,PUNE DIGHI BRANCH,18.628523,73.873561
WEST,PUNE,PUNE,P50,CHAKAN BRANCH,18.73547669,73.85630619
WEST,PUNE,AURANGABAD MH,P56,WALUJ BRANCH,19.830557,75.238956
WEST,PUNE,SHIRWAL,P57,SHIRWAL BRANCH,18.16428693,73.95160635
WEST,PUNE,PARBHANI,P58,PARBHANI BRANCH,19.25950636,76.7736528
WEST,PUNE,RATNAGIRI,P60,RATNAGIRI BRANCH,16.99266381,73.31470149
WEST,PUNE,JALNA,P61,JALNA SORTING OFFICE,19.15351003,77.31131443
WEST,PUNE,ICHALAKARANJI,P62,ICHALKARANJI SORTING OFFICE,16.69010161,74.46169732
WEST,PUNE,PUNE,P64,PUNE INTERNATIONAL BRANCH,18.53516349,73.84994089
WEST,PUNE,PUNE,P65,RANJANGAON BRANCH,18.715775,74.179947
WEST,PUNE,SHIRDI,P71,SHIRDI-NODAL POINT,19.7644519,74.4778687
WEST,PUNE,LATUR,P72,BEED BRANCH,18.99387417,75.75504835
WEST,PUNE,PUNE,P73,TALEGAON BRANCH,18.730266,73.650295
WEST,PUNE,NASIK,P74,YEOLA SUPER FRANCHISEE,20.03902756,74.4896667
WEST,PUNE,PUNE,P75,PUNE T/S APEX,18.628523,73.873561
WEST,PUNE,PUNE,P76,PUNE AIRPORT,18.628523,73.873561
NORTH,JAIPUR,JAIPUR,Q01,JAIPUR LALKOTHI BRANCH,26.89508,75.7846
NORTH,JAIPUR,JODHPUR,Q02,JODHPUR BRANCH,26.22714214,73.00817608
NORTH,JAIPUR,KOTA,Q03,KOTA SUPER FRANCHISEE,25.17879242,75.85794449
NORTH,JAIPUR,UDAIPUR,Q04,UDAIPUR BRANCH,24.57303714,73.7064791
NORTH,JAIPUR,JAIPUR,Q05,JAIPUR APEX,26.88274,75.740257
NORTH,JAIPUR,JAIPUR,Q06,JAIPUR VAISHALINAGAR BRANCH,26.88269,75.74025
NORTH,JAIPUR,ALWAR,Q07,ALWAR BRANCH,27.575846,76.612039
NORTH,JAIPUR,JAIPUR,Q08,JAIPUR SCS APEX,26.88274,75.740257
NORTH,JAIPUR,AJMER,Q09,AJMER BRANCH,26.4275957,74.6494302
NORTH,JAIPUR,PALI (RJ),Q10,PALI BRANCH,25.774369,73.339469
NORTH,JAIPUR,BHIWADI,Q11,BHIWADI BRANCH,28.1968,76.83771
NORTH,JAIPUR,BHILWARA,Q12,BHILWARA SORTING OFFICE,25.36057,74.6372
NORTH,JAIPUR,SRIGANGANAGAR,Q13,SRIGANGANAGAR BRANCH,29.907571,73.877824
NORTH,JAIPUR,BIKANER,Q14,BIKANER BRANCH,27.998,73.325423
NORTH,JAIPUR,SIKAR,Q16,SIKAR BRANCH,27.606631,75.15031
NORTH,JAIPUR,JAIPUR,Q17,MANSAROVAR BRANCH,26.829017,75.777089
NORTH,JAIPUR,BEHROR,Q18,BEHROR SORTING OFFICE,27.8943833,76.295719
NORTH,JAIPUR,BAWAL,Q34,BAWAL BRANCH,28.0745063,76.5665064
NORTH,JAIPUR,JAIPUR,Q35,JAIPUR VKI BRANCH,26.9612,75.771137
NORTH,JAIPUR,BHARATPUR,Q40,BHARATPUR SERVICE CENTER,27.227198,77.487869
NORTH,JAIPUR,JAIPUR,Q41,BAGRU SERVICE CENTER,26.81634,75.55887
NORTH,JAIPUR,SHAHPURA - (JAIPUR ROAD),Q43,SHAHPURA (JAIPUR ROAD) NODAL POINT,27.36643,75.9555
NORTH,JAIPUR,ALWAR,Q44,NEEMRANA BRANCH,27.96147077,76.3734739
NORTH,JAIPUR,JAIPUR,Q46,JAIPUR T/S APEX,26.88274,75.740257
NORTH,JAIPUR,JAIPUR,Q47,JAIPUR AIRPORT,26.88274,75.740257
NORTH,JAIPUR,JAIPUR,Q48,IP DISPATCH JAIPUR BRANCH,26.88274,75.740257
WEST,NAGPUR RO,NAGPUR,R01,NAGPUR AIR APEX,21.0595127,79.0560147
WEST,NAGPUR RO,CHANDRAPUR -MH,R02,CHANDRAPUR SUPER FRANCHISE,19.9718663,79.2968235
WEST,NAGPUR RO,AKOLA,R04,AKOLA BRANCH,20.695675,76.96791
WEST,NAGPUR RO,NAGPUR,R05,NAGPUR T/S APEX,21.0595127,79.0560147
WEST,NAGPUR RO,RAIPUR,R06,RAIPUR APEX,21.258502,81.557855
WEST,NAGPUR RO,BILASPUR,R07,BILASPUR BRANCH,22.06746532,82.18554861
WEST,NAGPUR RO,BHILAI,R08,BHILLAI BRANCH,21.199814,81.323859
WEST,NAGPUR RO,KORBA,R10,KORBA BRANCH,22.3583,82.70833
WEST,NAGPUR RO,NAGPUR,R11,NAGPUR PANDE LAYOUT BRANCH,21.1052737,79.0509123
WEST,NAGPUR RO,AMARAVATI,R12,AMRAVATI BRANCH,21.00105,77.81166
WEST,NAGPUR RO,YAVATMAL,R13,YAVATMAL SUPER FRANCHISEE,20.38347231,78.12951164
WEST,NAGPUR RO,NAGPUR,R16,NAGPUR SCS APEX,21.13869147,79.00504534
WEST,NAGPUR RO,RAIPUR,R17,RAIPUR T/S APEX,21.258502,81.557855
WEST,NAGPUR RO,RAIGARH,R19,RAIGARH BRANCH,21.89603557,83.39058014
WEST,NAGPUR RO,KHAMGAON,R28,KHAMGAON SORTING OFFICE,20.71722744,76.56358527
WEST,NAGPUR RO,AMBIKAPUR(CG),R29,AMBIKAPUR NODAL POINT,23.114691,83.206093
WEST,NAGPUR RO,NAGPUR,R32,NAGPUR GHAT ROAD BRANCH,21.142512,79.090522
WEST,NAGPUR RO,NAGPUR,R33,NAGPUR AIRPORT,21.143067,79.007626
NORTH,SOUTH DELHI RO,DELHI,S01,KHIRKI BRANCH,28.53452243,77.21837521
NORTH,SOUTH DELHI RO,FARIDABAD,S02,FARIDABAD BRANCH,28.396359,77.31341
NORTH,SOUTH DELHI RO,DELHI,S03,MAHIPALPUR BRANCH,28.537631,77.118414
NORTH,SOUTH DELHI RO,DELHI,S04,OKHLA BRANCH,28.53912798,77.26958264
NORTH,SOUTH DELHI RO,DELHI,S09,DWARKA BRANCH,28.6077608,77.0476351
NORTH,SOUTH DELHI RO,DELHI,S12,OKHLA SCS APEX,28.521952,77.281951
NORTH,SOUTH DELHI RO,DELHI,S13,OKHLA APEX,28.53912798,77.26958264
NORTH,SOUTH DELHI RO,DELHI,S17,ASHRAM BRANCH,28.571125,77.258233
NORTH,SOUTH DELHI RO,DELHI,S25,SOUTH DELHI DP PROCESSING CENTER APEX,28.53231663,77.09848338
NORTH,SOUTH DELHI RO,DELHI,S26,CHATTARPUR BRANCH,28.49292,77.18467
NORTH,SOUTH DELHI RO,BALLABGARH,S27,BALLABHGARH BRANCH,28.34475148,77.31691665
EAST,PATNA,PATNA,T01,PATNA APEX,25.5762215,85.2358959
EAST,PATNA,RANCHI,T02,RANCHI APEX,23.35235,85.377875
EAST,PATNA,JAMSHEDPUR,T03,JAMSHEDPUR BRANCH,22.84244,86.21707
EAST,PATNA,DHANBAD,T04,DHANBAD BRANCH,23.85216,86.42774
EAST,PATNA,MUZAFFARPUR,T05,MUZAFFARPUR BRANCH,26.108,85.367
EAST,PATNA,BHAGALPUR,T06,BHAGALPUR BRANCH,25.25176,87.00844
EAST,PATNA,GAYA,T07,GAYA BRANCH,24.76391,84.98871
EAST,PATNA,BOKARO,T09,BOKARO BRANCH,23.62195,86.1834
EAST,PATNA,PATNA,T10,ZERO MILE BRANCH,25.5762215,85.2358959
EAST,PATNA,PATNA,T12,PATNA T/S APEX,25.5762215,85.2358959
EAST,PATNA,PURNIA,T13,PURNEA BRANCH,25.792696,87.542371
EAST,PATNA,RANCHI,T14,RANCHI CITY BRANCH,23.35235,85.377875
EAST,PATNA,SAHARSA,T15,SAHARSA SORTING OFFICE,25.8778023,86.595935
EAST,PATNA,KATIHAR,T16,KATIHAR SORTING OFFICE,25.5430714,87.5687154
EAST,PATNA,PATNA,T17,BIHAR T/S APEX,25.5762215,85.2358959
EAST,PATNA,MUNGER,T18,JAMALPUR SUPER FRANCHISEE,25.3744003,86.4826974
EAST,PATNA,DARBHANGA,T26,DARBHANGA SORTING OFFICE,26.17990852,85.90025455
EAST,PATNA,PATNA,T32,EXHIBITION ROAD BRANCH,25.609713,85.141025
EAST,PATNA,RANCHI,T33,RANCHI T/S APEX,23.35235,85.377875
EAST,PATNA,HAZARIBAGH,T34,HAZARIBAGH SUB BRANCH,23.982169,85.363121
EAST,PATNA,RANCHI,T35,JHARKHAND T/S APEX,23.35235,85.377875
EAST,PATNA,MOTIHARI,T36,MOTIHARI BRANCH,26.6382312,84.9236182
EAST,PATNA,CHAPRA,T38,CHAPRA SORTING OFFICE,25.78500122,84.74665391
EAST,PATNA,GOPALGUNJ,T39,GOPALGUNJ SORTING OFFICE,26.46710529,84.4429686
EAST,PATNA,VAISHALI (BH),T40,HAZIPUR SORTING OFFICE,25.693528,85.231937
EAST,PATNA,BEGUSARI,T42,BEGUSARAI SORTING OFFICE,25.421045,86.12101
EAST,PATNA,SAMASTIPUR,T85,SAMASTIPUR SORTING OFFICE,25.862261,85.784355
EAST,PATNA,DUMKA,T86,DUMKA BRANCH,24.286084,87.252397
EAST,PATNA,GODDA,T87,GODDA BRANCH,24.815503,87.209508
EAST,PATNA,MOHANIA,T88,MOHANIA BRANCH,25.1581719,83.62298441
EAST,PATNA,DANAPUR,T89,SAGUNA MORE SERVICE CENTER,25.6204,85.0436
EAST,PATNA,PATNA,T90,PATNA AIRPORT,25.5762215,85.2358959
EAST,PATNA,RANCHI,T91,RANCHI AIRPORT,23.35235,85.377875
NORTH,GHAZIABAD RO,LUCKNOW,U01,LUCKNOW BRANCH,26.8539,80.94651
NORTH,GHAZIABAD RO,ALLAHABAD,U02,PRAYAGRAJ BRANCH,25.45734,81.82956
NORTH,GHAZIABAD RO,KANPUR,U03,KANPUR BRANCH,26.42149,80.31762
NORTH,GHAZIABAD RO,VARANASI,U04,VARANASI APEX,25.248513,82.927774
NORTH,GHAZIABAD RO,GORAKHPUR,U06,GORAKHPUR BRANCH,26.73272,83.3804
NORTH,GHAZIABAD RO,GWALIOR,U07,GWALIOR BRANCH,26.207341,78.191825
NORTH,GHAZIABAD RO,AGRA,U09,AGRA BRANCH,27.21137,77.961799
NORTH,GHAZIABAD RO,DEHRADUN,U10,DEHRADUN BRANCH,30.29691,77.99936
NORTH,GHAZIABAD RO,GHAZIABAD,U11,GHAZIABAD APEX,28.68924002,77.43653512
NORTH,GHAZIABAD RO,ORAI (JALAUN),U110,ORAI NODAL POINT,25.97896189,79.4444155
NORTH,GHAZIABAD RO,HALDWANI,U12,HALDWANI BRANCH,29.19035339,79.52363586
NORTH,GHAZIABAD RO,MEERUT,U13,MEERUT BRANCH,28.94828525,77.67162749
NORTH,GHAZIABAD RO,VARANASI,U130,VARANASI BRANCH,25.3002314,82.9800285
NORTH,GHAZIABAD RO,GAZIPUR,U133,AZAMGARH BRANCH,26.08468847,83.19300796
NORTH,GHAZIABAD RO,BARABANKI,U135,BARABANKI SORTING OFFICE,26.915608,81.18922814
NORTH,GHAZIABAD RO,GHAZIABAD,U137,UPT DP PROCESSING CENTRE APEX,28.53231663,77.09848338
NORTH,GHAZIABAD RO,LUCKNOW,U139,LUCKNOW TRANSPORT NAGAR BRANCH,26.776996,80.897897
NORTH,GHAZIABAD RO,MORADABAD,U14,MORADABAD BRANCH,28.821103,78.796796
NORTH,GHAZIABAD RO,LAKHIMPUR,U140,LAKHIMPUR MINI BRANCH,27.9377051,80.8044634
NORTH,GHAZIABAD RO,KANNAUJ,U141,KANNUAJ BRANCH,27.032581,79.915739
NORTH,GHAZIABAD RO,BASTI,U142,BASTI BRANCH,26.79775,82.71465
NORTH,GHAZIABAD RO,LUCKNOW,U143,GOMTI NAGAR BRANCH,26.855187,81.027318
NORTH,GHAZIABAD RO,RAIBARELI,U144,RAEBARELI BRANCH,26.229302,81.250433
NORTH,GHAZIABAD RO,BULANDSHAHAR,U145,BULANDSHAHR BRANCH,28.39634409,77.82953434
NORTH,GHAZIABAD RO,GHAZIABAD,U146,GHAZIABAD BRANCH,28.68924002,77.43653512
NORTH,GHAZIABAD RO,LUCKNOW,U147,LUCKNOW T/S APEX,26.722948,80.902664
NORTH,GHAZIABAD RO,VARANASI,U148,VARANASI AIRPORT,25.248513,82.927774
NORTH,GHAZIABAD RO,LUCKNOW,U149,LUCKNOW AIRPORT,26.722948,80.902664
NORTH,GHAZIABAD RO,BAREILLY,U15,BAREILLY BRANCH,28.3980359,79.373463
NORTH,GHAZIABAD RO,KANPUR,U150,KANPUR CITY BRANCH,26.423418,80.324584
NORTH,GHAZIABAD RO,ALIGARH,U16,ALIGARH BRANCH,27.87556111,78.09470713
NORTH,GHAZIABAD RO,RISHIKESH,U17,RISHIKESH BRANCH,30.11009341,78.29898348
NORTH,GHAZIABAD RO,HARDWAR,U18,HARDWAR BRANCH,29.93877504,78.04878967
NORTH,GHAZIABAD RO,MUZAFFARNAGAR,U19,MUZAFFARNAGAR BRANCH,29.46246768,77.7129576
NORTH,GHAZIABAD RO,SHAHARANPUR,U20,SAHARANPUR BRANCH,29.967135,77.561666
NORTH,GHAZIABAD RO,SAHIBABAD,U21,SAHIBABAD BRANCH,28.67808947,77.37403632
NORTH,GHAZIABAD RO,ROORKEE,U22,ROORKEE BRANCH,29.8917447,77.8681631
NORTH,GHAZIABAD RO,RUDRAPUR,U23,RUDRAPUR BRANCH,28.95974,79.42132
NORTH,GHAZIABAD RO,JHANSI,U24,JHANSI BRANCH,25.4861389,78.5594444
NORTH,GHAZIABAD RO,MATHURA,U25,MATHURA BRANCH,27.49056234,77.65546007
NORTH,GHAZIABAD RO,FAIZABAD,U26,AYODHYA BRANCH,26.76757028,82.17389723
NORTH,GHAZIABAD RO,KASHIPUR,U27,KASHIPUR BRANCH,29.193968,78.94991
NORTH,GHAZIABAD RO,DEHRADUN,U28,SELAQUI BRANCH,30.3642,77.847537
NORTH,GHAZIABAD RO,VAISHALI (UP),U30,VAISHALI BRANCH,28.6729173,77.3599774
NORTH,GHAZIABAD RO,BIJNOR,U31,BIJNORE BRANCH,29.365543,78.140978
NORTH,GHAZIABAD RO,SAHIBABAD,U33,SAHIBABAD SCS APEX,28.68924002,77.43653512
NORTH,GHAZIABAD RO,AGRA,U34,AGRA SCS APEX,27.21137,77.961799
NORTH,GHAZIABAD RO,KASHIPUR,U35,KASHIPUR SCS APEX,29.196774,78.95236887
NORTH,GHAZIABAD RO,DEHRADUN,U36,DEHRADUN SCS APEX,30.3642,77.847537
NORTH,GHAZIABAD RO,RUDRAPUR,U37,RUDRAPUR SCS APEX,28.95974,79.42132
NORTH,GHAZIABAD RO,NOIDA,U38,NOIDA SCS APEX,28.532392,77.413571
NORTH,GHAZIABAD RO,LUCKNOW,U39,LUCKNOW SCS APEX,26.722948,80.902664
NORTH,GHAZIABAD RO,KANPUR,U40,KANPUR SCS APEX,26.40543369,80.35614724
NORTH,GHAZIABAD RO,LUCKNOW,U43,LUCKNOW APEX,26.722948,80.902664
NORTH,GHAZIABAD RO,RENUKOOT,U44,RENUKOOT SUPER FRANCHISEE,24.22611,83.04175
NORTH,GHAZIABAD RO,GONDA,U45,GONDA BRANCH,27.15034001,81.95553948
NORTH,GHAZIABAD RO,LUCKNOW,U48,MAHANAGAR LUCKNOW BRANCH,26.8710987,80.9642826
NORTH,GHAZIABAD RO,SHAHJAHANPUR -UP,U77,SHAHJAHANPUR SUPER FRANCHISEE,27.85721,79.8815
NORTH,GHAZIABAD RO,AMETHI,U78,SULTANPUR BRANCH,26.23727836,82.0623568
NORTH,GHAZIABAD RO,JAUNPUR,U79,JAUNPUR SORTING OFFICE,25.7293,82.69204
NORTH,GHAZIABAD RO,DIBIYAPUR,U83,AURAIYA NODAL POINT,26.457265,79.517218
NORTH,GHAZIABAD RO,SULTANPUR,U95,HARDOI NODAL POINT,27.3870279,80.1337981
SOUTH,VIJAYAWADA,TIRUPATI,V01,TIRUPATI BRANCH,13.6308852,79.4840983
SOUTH,VIJAYAWADA,VISHAKAPATNAM,V02,VISHAKAPATNAM APEX,17.73699,83.26624
SOUTH,VIJAYAWADA,KURNOOL,V04,KURNOOL BRANCH,15.797312,78.035312
SOUTH,VIJAYAWADA,RAJAHMUNDRY,V05,RAJAHMUNDRY BRANCH,17.03889,81.826194
SOUTH,VIJAYAWADA,VIJAYAWADA,V06,VIJAYAWADA APEX,16.5479875,80.6892874
SOUTH,VIJAYAWADA,ANANTHPUR,V07,ANANTHPUR SUPER FRANCHISEE,14.68456,77.60208
SOUTH,VIJAYAWADA,GUNTUR,V08,GUNTUR BRANCH,16.27664625,80.43586528
SOUTH,VIJAYAWADA,NELLORE,V09,NELLORE SUPER FRANCHISEE,14.4020707,79.9611763
SOUTH,VIJAYAWADA,ONGOLE,V10,ONGOLE BRANCH,15.5215757,80.042791
SOUTH,VIJAYAWADA,VIZIANAGARAM,V11,VIZIANAGARAM BRANCH,18.098368,83.433467
SOUTH,VIJAYAWADA,SRIKAKULAM,V12,SRIKAKULAM BRANCH,18.309285,83.918726
SOUTH,VIJAYAWADA,CUDDAPAH,V13,CUDDAPAH SUPER FRANCHISEE,14.480988,78.808975
SOUTH,VIJAYAWADA,KAKINADA,V15,KAKINADA SUB BRANCH,16.97503955,82.2312297
SOUTH,VIJAYAWADA,VISHAKAPATNAM,V16,GAJUWAKA SUPER FRANCHISEE,17.68724,83.20519
SOUTH,VIJAYAWADA,VIJAYAWADA,V19,VIJAYAWADA SCS BRANCH,16.5479875,80.6892874
SOUTH,VIJAYAWADA,VISHAKAPATNAM,V20,VISHAKAPATNAM SCS BRANCH,17.73699,83.26624
SOUTH,VIJAYAWADA,MADANAPALLY,V21,MADANAPALLI SORTING OFFICE,13.549309,78.52729
SOUTH,VIJAYAWADA,NANDYAL,V22,NANDYAL SUB BRANCH,15.4615815,78.4850014
SOUTH,VIJAYAWADA,ANANTHPUR,V24,HINDUPUR BRANCH,13.84673,77.48332
SOUTH,VIJAYAWADA,CHITTOOR,V32,CHITTOOR NODAL POINT,13.2169452,79.108187
SOUTH,VIJAYAWADA,BHIMAVARAM,V57,BHIMAVARAM SUB BRANCH,16.5462114,81.52220247
SOUTH,VIJAYAWADA,VIJAYAWADA,V58,VIJAYAWADA BRANCH,16.5479875,80.6892874
SOUTH,VIJAYAWADA,VIJAYAWADA,V59,VIJAYAWADA T/S APEX,16.5479875,80.6892874
SOUTH,VIJAYAWADA,VISHAKAPATNAM,V60,VISAKHAPATNAM AIRPORT,17.73699,83.26624
SOUTH,VIJAYAWADA,VIJAYAWADA,V61,VIJAYAWADA AIRPORT,16.5479875,80.6892874
EAST,BHUBANESHWAR,CUTTACK,W02,CUTTACK BRANCH,20.4071466,85.8776718
EAST,BHUBANESHWAR,ROURKELA,W03,ROURKELA BRANCH,22.23,84.8255
EAST,BHUBANESHWAR,BERHAMPUR -OR,W04,BERHAMPUR BRANCH,19.28545,84.795772
EAST,BHUBANESHWAR,JAJPUR,W05,JAJPUR ROAD BRANCH,20.93365,86.173234
EAST,BHUBANESHWAR,BALASORE,W06,BALASORE BRANCH,21.52448,86.89565
EAST,BHUBANESHWAR,SAMBALPUR,W07,SAMBALPUR BRANCH,21.49330792,83.98151537
EAST,BHUBANESHWAR,RAYAGADA,W08,RAYAGADA SUB BRANCH,19.186187,83.412693
EAST,BHUBANESHWAR,ANGUL,W09,ANGUL BRANCH,20.825877,85.093817
EAST,BHUBANESHWAR,BHUBANESHWAR,W10,BHUBANESHWAR SURFACE APEX,20.4072674,85.8775314
EAST,BHUBANESHWAR,JHARSUGUDA,W12,JHARSUGUDA SERVICE CENTER,21.824582,84.007963
EAST,BHUBANESHWAR,BHADRAK,W14,BHADRAK SORTING OFFICE,21.054756,86.492643
EAST,BHUBANESHWAR,PURI,W15,PURI SORTING OFFICE,19.808769,85.8293197
EAST,BHUBANESHWAR,BHUBANESHWAR,W21,RUCHIKA MARKET BRANCH,20.281375,85.793248
EAST,BHUBANESHWAR,KORAPUT,W22,JEYPORE SORTING OFFICE,18.846756,82.600635
EAST,BHUBANESHWAR,BOLANGIR,W23,BOLANGIR SORTING OFFICE,20.70358161,83.48763987
EAST,BHUBANESHWAR,KHURDA,W40,KHURDA NODAL POINT,20.18291636,85.62023603
EAST,BHUBANESHWAR,PARADEEP,W44,PARADEEP NODAL POINT,20.29519137,86.64386677
EAST,BHUBANESHWAR,BHUBANESHWAR,W52,MANCHESWAR BRANCH,20.302516,85.85346
EAST,BHUBANESHWAR,BHUBANESHWAR,W53,BHUBANESWAR AIR APEX,20.302516,85.85346
EAST,BHUBANESHWAR,BERHAMPUR -OR,W54,KHALLIKOTE BRANCH,19.6281,85.1314
EAST,BHUBANESHWAR,BHUBANESHWAR,W55,BHUBANESWAR T/S APEX,20.302516,85.85346
EAST,BHUBANESHWAR,BHUBANESHWAR,W56,BHUBANESWAR AIRPORT,20.302516,85.85346
EAST,BHUBANESHWAR,BHUBANESHWAR,W57,BHIMATANGI IGSP BRANCH,20.24134,85.82539
EAST,BHUBANESHWAR,CUTTACK,W58,IP DISPATCH ODISHA BRANCH,20.4071466,85.8776718
EAST,GUWAHATI,GUWAHATI,X01,DHARAPUR APEX,26.13382,91.62004
EAST,GUWAHATI,SILCHAR,X02,SILCHAR SORTING OFFICE,24.831671,92.760625
EAST,GUWAHATI,AGARTALA,X03,AGARTALA APEX,23.83510848,91.27031132
EAST,GUWAHATI,DIBRUGARH,X04,DIBRUGARH BRANCH,27.48097,94.906652
EAST,GUWAHATI,TEZPUR,X05,TEZPUR BRANCH,26.66273225,92.80764845
EAST,GUWAHATI,SHILLONG,X06,SHILLONG SORTING OFFICE,25.57713828,91.88207179
EAST,GUWAHATI,AIZWAL,X07,AIZAWLSORTING OFFICE,23.737463,92.7168732
EAST,GUWAHATI,GUWAHATI,X10,LANUNG GAON BRANCH,26.13382,91.62004
EAST,GUWAHATI,AGARTALA,X11,AGARTALA T/S APEX,23.83510848,91.27031132
EAST,GUWAHATI,IMPHAL,X12,IMPHAL SORTING OFFICE,24.7647,93.8973
EAST,GUWAHATI,BONGAIGON,X13,BONGAIGAON SORTING OFFICE,26.50391345,90.54706072
EAST,GUWAHATI,DULIAJAN,X14,DULIAJAN SORTING OFFICE,27.3575655,95.3342788
EAST,GUWAHATI,JORHAT,X15,JORHAT SORTING OFFICE,26.75046927,94.17928665
EAST,GUWAHATI,TINSUKIA,X17,TINSUKIA SORTING OFFICE,27.49220396,95.34679427
EAST,GUWAHATI,GOALPARA,X18,GOALPARA BRANCH,26.16949061,90.62561518
EAST,GUWAHATI,NAOGAON,X19,NAGAON BRANCH,26.35368864,92.68636504
EAST,GUWAHATI,DIBRUGARH,X21,DIBRUGARH APEX,27.48061152,94.90665145
EAST,GUWAHATI,GUWAHATI,X22,DISPUR BRANCH,26.13767279,91.79052075
EAST,GUWAHATI,DHUBRI,X23,DHUBRI BRANCH,26.01966,89.987739
EAST,GUWAHATI,ITANAGAR,X25,ITANAGAR BRANCH,27.10335107,93.62538013
EAST,GUWAHATI,SIBSAGAR,X26,SIVASAGAR BRANCH,26.996573,94.646011
EAST,GUWAHATI,GOLAGHAT,X27,GOLAGHAT BRANCH,26.50727326,93.97308808
EAST,GUWAHATI,NORTH LAKHIMPUR,X28,NORTH LAKHIMPUR BRANCH,27.2315944,94.0920157
EAST,GUWAHATI,NALBARI,X29,NALBARI BRANCH,26.45888,91.43701
EAST,GUWAHATI,DHARMANAGAR,X30,DHARMANAGAR BRANCH,24.37608462,92.16367112
EAST,GUWAHATI,JORHAT,X32,DIMAPUR BRANCH,25.91148426,93.70255499
EAST,GUWAHATI,NAOGAON,X33,JAGIROAD BRANCH,26.12113035,92.19794161
EAST,GUWAHATI,BONGAIGON,X34,BARPETA BRANCH,26.33178901,91.00853763
EAST,GUWAHATI,AGARTALA,X35,HGB ROAD APEX,23.82912363,91.27772305
EAST,GUWAHATI,GUWAHATI,X36,AMINGAON BRANCH,26.18808231,91.66467152
EAST,GUWAHATI,MORANHAT,X37,MORAN BRANCH,27.19744102,94.91030293
EAST,GUWAHATI,NAOGAON,X38,LANKA SORTING OFFICE,25.915809,92.95611
EAST,GUWAHATI,SILAPATHAR,X39,SILAPATHAR SORTING OFFICE,27.5776322,94.7287268
EAST,GUWAHATI,UDAIPUR-TP,X40,UDAIPUR SORTING OFFICE,23.465184,91.187174
EAST,GUWAHATI,KALIABOR,X41,KOLIABOR SORTING OFFICE,26.5459306,92.9284895
EAST,GUWAHATI,GUWAHATI,X42,DHARAPUR T/S APEX,26.13382,91.62004
EAST,GUWAHATI,GUWAHATI,X43,DHARAPUR AIRPORT,26.13382,91.62004
EAST,GUWAHATI,MONGALDAI,X44,MANGOLDOI SORTING OFFICE,26.265,92.0241
EAST,GUWAHATI,HALFLONG,X45,HAFLONG SORTING OFFICE,25.167,93.016